{
  "norad_id": 64459,
  "name": "STARLINK-34421",
  "history": [
    {
      "epoch": "2026-03-28T21:43:50.506752Z",
      "apogee_km": 476.18153147549674,
      "perigee_km": 474.362499654585,
      "latitude_deg": 3.379884970245693e-05,
      "longitude_deg": -152.89520353344466,
      "height_km": 475.5128783311899,
      "semi_major_axis_km": 6853.409015565041,
      "eccentricity": 0.00013271,
      "inclination_deg": 53.1606,
      "raan_deg": 359.3844,
      "arg_perigee_deg": 43.6815,
      "mean_anomaly_deg": 316.4291,
      "mean_motion_rev_day": 15.30180928
    },
    {
      "epoch": "2026-03-29T00:51:56.725344Z",
      "apogee_km": 476.08281276366506,
      "perigee_km": 474.3598784755768,
      "latitude_deg": -5.7203494771992414e-05,
      "longitude_deg": 159.33556547804594,
      "height_km": 476.1410886933508,
      "semi_major_axis_km": 6853.358345619621,
      "eccentricity": 0.0001257,
      "inclination_deg": 53.1592,
      "raan_deg": 358.7699,
      "arg_perigee_deg": 91.4453,
      "mean_anomaly_deg": 268.6691,
      "mean_motion_rev_day": 15.30197898
    },
    {
      "epoch": "2026-03-30T03:30:50.601600Z",
      "apogee_km": 476.0731474833028,
      "perigee_km": 474.4198372496048,
      "latitude_deg": -4.3683930754924964e-05,
      "longitude_deg": 113.36148506022812,
      "height_km": 475.9392673761362,
      "semi_major_axis_km": 6853.3834923664535,
      "eccentricity": 0.00012062,
      "inclination_deg": 53.1596,
      "raan_deg": 353.6147,
      "arg_perigee_deg": 75.6128,
      "mean_anomaly_deg": 284.5006,
      "mean_motion_rev_day": 15.30189476
    },
    {
      "epoch": "2026-03-30T20:45:25.778880Z",
      "apogee_km": 476.22487954747703,
      "perigee_km": 474.08953013913197,
      "latitude_deg": 5.863199473688402e-07,
      "longitude_deg": -149.331502276922,
      "height_km": 475.79930753081396,
      "semi_major_axis_km": 6853.294204843304,
      "eccentricity": 0.00015579,
      "inclination_deg": 53.1603,
      "raan_deg": 350.2764,
      "arg_perigee_deg": 76.1445,
      "mean_anomaly_deg": 283.9729,
      "mean_motion_rev_day": 15.3021938
    },
    {
      "epoch": "2026-03-31T01:27:35.251488Z",
      "apogee_km": 476.0840964618137,
      "perigee_km": 474.32237682058167,
      "latitude_deg": -4.726661771083926e-05,
      "longitude_deg": 139.02676290888357,
      "height_km": 475.8883953848739,
      "semi_major_axis_km": 6853.340236641197,
      "eccentricity": 0.00012853,
      "inclination_deg": 53.1606,
      "raan_deg": 349.3673,
      "arg_perigee_deg": 76.005,
      "mean_anomaly_deg": 284.1093,
      "mean_motion_rev_day": 15.30203963
    },
    {
      "epoch": "2026-03-31T23:24:20.290176Z",
      "apogee_km": 475.7002000840821,
      "perigee_km": 474.58859784117067,
      "latitude_deg": -5.5299763235249395e-05,
      "longitude_deg": 164.69101321870806,
      "height_km": 476.04492993319064,
      "semi_major_axis_km": 6853.281398962626,
      "eccentricity": 8.11e-05,
      "inclination_deg": 53.1617,
      "raan_deg": 345.1205,
      "arg_perigee_deg": 90.1692,
      "mean_anomaly_deg": 269.9401,
      "mean_motion_rev_day": 15.30223669
    },
    {
      "epoch": "2026-04-02T20:51:52.399872Z",
      "apogee_km": 475.98529547648013,
      "perigee_km": 474.27197906716174,
      "latitude_deg": 5.631070837913004e-05,
      "longitude_deg": -167.85762363800043,
      "height_km": 476.2873856392303,
      "semi_major_axis_km": 6853.265637271821,
      "eccentricity": 0.000125,
      "inclination_deg": 53.1625,
      "raan_deg": 336.3225,
      "arg_perigee_deg": 107.6892,
      "mean_anomaly_deg": 252.4246,
      "mean_motion_rev_day": 15.30228948
    },
    {
      "epoch": "2026-04-02T22:25:55.550208Z",
      "apogee_km": 476.01179812649025,
      "perigee_km": 474.22460623486586,
      "latitude_deg": 7.570886914599702e-06,
      "longitude_deg": 168.26263704500974,
      "height_km": 476.0731697727439,
      "semi_major_axis_km": 6853.255202180678,
      "eccentricity": 0.00013039,
      "inclination_deg": 53.1631,
      "raan_deg": 336.0203,
      "arg_perigee_deg": 93.631,
      "mean_anomaly_deg": 266.484,
      "mean_motion_rev_day": 15.30232443
    },
    {
      "epoch": "2026-04-03T09:24:18.994464Z",
      "apogee_km": 477.12351443015814,
      "perigee_km": 473.4920111192587,
      "latitude_deg": -3.840682115109753e-06,
      "longitude_deg": 1.0895917132555135,
      "height_km": 475.5703119442409,
      "semi_major_axis_km": 6853.444762774708,
      "eccentricity": 0.00026494,
      "inclination_deg": 53.1618,
      "raan_deg": 333.8956,
      "arg_perigee_deg": 69.5651,
      "mean_anomaly_deg": 290.5634,
      "mean_motion_rev_day": 15.30168956
    },
    {
      "epoch": "2026-04-04T19:53:29.658336Z",
      "apogee_km": 476.3064297935598,
      "perigee_km": 474.0612818811869,
      "latitude_deg": 3.804868864965189e-05,
      "longitude_deg": -164.29471254446605,
      "height_km": 475.02792816901734,
      "semi_major_axis_km": 6853.3208558373735,
      "eccentricity": 0.0001638,
      "inclination_deg": 53.1624,
      "raan_deg": 327.222,
      "arg_perigee_deg": 19.9484,
      "mean_anomaly_deg": 340.1581,
      "mean_motion_rev_day": 15.30210454
    }
  ]
}